start=new Date('2022-09-20T00:00:00.000Z').valueOf();
sats=[{"MEAN_MOTION_DDOT":"0.0000000000000","RA_OF_ASC_NODE":"354.6350","OBJECT_TYPE":"PAYLOAD","ECCENTRICITY":"0.00014880","ARG_OF_PERICENTER":"69.5472","TLE_LINE2":"2 45668  53.0570 354.6350 0001488  69.5472 290.5676 15.06402264127769","SEMIMAJOR_AXIS":"6925.342","MEAN_ANOMALY":"290.5676","REF_FRAME":"TEME","SITE":"AFETR","TIME_SYSTEM":"UTC","EPHEMERIS_TYPE":"0","TLE_LINE1":"1 45668U 20035M   22262.64025113  .00002076  00000-0  15823-3 0  9992","EPOCH":"2022-09-19T15:21:57.697632","PERIAPSIS":"546.176","LAUNCH_DATE":"2020-06-04","GP_ID":"213030088","CENTER_NAME":"EARTH","ELEMENT_SET_NO":"999","RCS_SIZE":"LARGE","OBJECT_NAME":"STARLINK-1451","COUNTRY_CODE":"US","BSTAR":"0.00015823000000","FILE":"3578162","INCLINATION":"53.0570","NORAD_CAT_ID":"45668","APOAPSIS":"548.237","MEAN_MOTION_DOT":"0.00002076","OBJECT_ID":"2020-035M","MEAN_ELEMENT_THEORY":"SGP4","CLASSIFICATION_TYPE":"U","MEAN_MOTION":"15.06402264","PERIOD":"95.592","REV_AT_EPOCH":"12776","DECAY_DATE":null},{"INCLINATION":"53.0565","FILE":"3577787","APOAPSIS":"548.268","NORAD_CAT_ID":"45669","ELEMENT_SET_NO":"999","RCS_SIZE":"LARGE","OBJECT_NAME":"STARLINK-1452","COUNTRY_CODE":"US","BSTAR":"0.00003818100000","CLASSIFICATION_TYPE":"U","MEAN_ELEMENT_THEORY":"SGP4","PERIOD":"95.593","MEAN_MOTION":"15.06393632","REV_AT_EPOCH":"12731","DECAY_DATE":null,"MEAN_MOTION_DOT":"0.00000287","OBJECT_ID":"2020-035N","RA_OF_ASC_NODE":"355.2972","OBJECT_TYPE":"PAYLOAD","ECCENTRICITY":"0.00014940","ARG_OF_PERICENTER":"61.3584","REF_FRAME":"TEME","MEAN_ANOMALY":"298.7555","TLE_LINE2":"2 45669  53.0565 355.2972 0001494  61.3584 298.7555 15.06393632127317","SEMIMAJOR_AXIS":"6925.368","TIME_SYSTEM":"UTC","SITE":"AFETR","MEAN_MOTION_DDOT":"0.0000000000000","EPOCH":"2022-09-19T11:45:42.908544","GP_ID":"212976382","LAUNCH_DATE":"2020-06-04","PERIAPSIS":"546.198","CENTER_NAME":"EARTH","EPHEMERIS_TYPE":"0","TLE_LINE1":"1 45669U 20035N   22262.49007996  .00000287  00000-0  38181-4 0  9990"},{"OBJECT_NAME":"STARLINK-1453","RCS_SIZE":"LARGE","ELEMENT_SET_NO":"999","COUNTRY_CODE":"US","BSTAR":"0.00005062000000","FILE":"3578162","INCLINATION":"53.0552","NORAD_CAT_ID":"45670","APOAPSIS":"548.162","MEAN_MOTION_DOT":"0.00000472","OBJECT_ID":"2020-035P","MEAN_ELEMENT_THEORY":"SGP4","CLASSIFICATION_TYPE":"U","MEAN_MOTION":"15.06388880","PERIOD":"95.593","REV_AT_EPOCH":"12810","DECAY_DATE":null,"MEAN_MOTION_DDOT":"0.0000000000000","OBJECT_TYPE":"PAYLOAD","RA_OF_ASC_NODE":"323.5602","ECCENTRICITY":"0.00013210","ARG_OF_PERICENTER":"79.2465","TLE_LINE2":"2 45670  53.0552 323.5602 0001321  79.2465 280.8673 15.06388880128108","SEMIMAJOR_AXIS":"6925.383","MEAN_ANOMALY":"280.8673","REF_FRAME":"TEME","SITE":"AFETR","TIME_SYSTEM":"UTC","EPHEMERIS_TYPE":"0","TLE_LINE1":"1 45670U 20035P   22262.87987330  .00000472  00000-0  50620-4 0  9991","EPOCH":"2022-09-19T21:07:01.053120","PERIAPSIS":"546.333","LAUNCH_DATE":"2020-06-04","GP_ID":"213029587","CENTER_NAME":"EARTH"},{"EPHEMERIS_TYPE":"0","TLE_LINE1":"1 45671U 20035Q   22262.56011244  .00001964  00000-0  15072-3 0  9998","EPOCH":"2022-09-19T13:26:33.714816","LAUNCH_DATE":"2020-06-04","GP_ID":"213008031","PERIAPSIS":"546.193","CENTER_NAME":"EARTH","MEAN_MOTION_DDOT":"0.0000000000000","RA_OF_ASC_NODE":"354.9824","OBJECT_TYPE":"PAYLOAD","ARG_OF_PERICENTER":"83.9058","ECCENTRICITY":"0.00015070","REF_FRAME":"TEME","MEAN_ANOMALY":"276.2102","TLE_LINE2":"2 45671  53.0580 354.9824 0001507  83.9058 276.2102 15.06392590127333","SEMIMAJOR_AXIS":"6925.371","TIME_SYSTEM":"UTC","SITE":"AFETR","MEAN_MOTION_DOT":"0.00001964","OBJECT_ID":"2020-035Q","CLASSIFICATION_TYPE":"U","MEAN_ELEMENT_THEORY":"SGP4","PERIOD":"95.593","MEAN_MOTION":"15.06392590","REV_AT_EPOCH":"12733","DECAY_DATE":null,"RCS_SIZE":"LARGE","OBJECT_NAME":"STARLINK-1454","ELEMENT_SET_NO":"999","COUNTRY_CODE":"US","BSTAR":"0.00015072000000","INCLINATION":"53.0580","FILE":"3578069","APOAPSIS":"548.280","NORAD_CAT_ID":"45671"},{"TLE_LINE1":"1 45672U 20035R   22262.50390756  .00001620  00000-0  12767-3 0  9998","EPHEMERIS_TYPE":"0","PERIAPSIS":"546.108","LAUNCH_DATE":"2020-06-04","GP_ID":"212998572","CENTER_NAME":"EARTH","EPOCH":"2022-09-19T12:05:37.613184","MEAN_MOTION_DDOT":"0.0000000000000","SEMIMAJOR_AXIS":"6925.369","TLE_LINE2":"2 45672  53.0559 325.2467 0001626  53.8539 306.2600 15.06393310128155","MEAN_ANOMALY":"306.2600","REF_FRAME":"TEME","SITE":"AFETR","TIME_SYSTEM":"UTC","OBJECT_TYPE":"PAYLOAD","RA_OF_ASC_NODE":"325.2467","ECCENTRICITY":"0.00016260","ARG_OF_PERICENTER":"53.8539","OBJECT_ID":"2020-035R","MEAN_MOTION_DOT":"0.00001620","REV_AT_EPOCH":"12815","DECAY_DATE":null,"CLASSIFICATION_TYPE":"U","MEAN_ELEMENT_THEORY":"SGP4","MEAN_MOTION":"15.06393310","PERIOD":"95.593","COUNTRY_CODE":"US","BSTAR":"0.00012767000000","ELEMENT_SET_NO":"999","RCS_SIZE":"LARGE","OBJECT_NAME":"STARLINK-1455","NORAD_CAT_ID":"45672","APOAPSIS":"548.360","FILE":"3577889","INCLINATION":"53.0559"},{"EPHEMERIS_TYPE":"0","TLE_LINE1":"1 45673U 20035S   22262.44215805  .00002172  00000-0  16465-3 0  9995","EPOCH":"2022-09-19T10:36:42.455520","CENTER_NAME":"EARTH","LAUNCH_DATE":"2020-06-04","GP_ID":"213008538","PERIAPSIS":"546.349","MEAN_MOTION_DDOT":"0.0000000000000","ARG_OF_PERICENTER":"74.8673","ECCENTRICITY":"0.00012600","OBJECT_TYPE":"PAYLOAD","RA_OF_ASC_NODE":"355.5121","TIME_SYSTEM":"UTC","SITE":"AFETR","REF_FRAME":"TEME","TLE_LINE2":"2 45673  53.0574 355.5121 0001260  74.8673 285.2455 15.06397331127321","MEAN_ANOMALY":"285.2455","SEMIMAJOR_AXIS":"6925.357","MEAN_MOTION_DOT":"0.00002172","OBJECT_ID":"2020-035S","PERIOD":"95.592","MEAN_MOTION":"15.06397331","MEAN_ELEMENT_THEORY":"SGP4","CLASSIFICATION_TYPE":"U","DECAY_DATE":null,"REV_AT_EPOCH":"12732","RCS_SIZE":"LARGE","OBJECT_NAME":"STARLINK-1456","ELEMENT_SET_NO":"999","BSTAR":"0.00016465000000","COUNTRY_CODE":"US","INCLINATION":"53.0574","FILE":"3578103","APOAPSIS":"548.094","NORAD_CAT_ID":"45673"},{"MEAN_MOTION_DOT":"0.00002674","OBJECT_ID":"2020-035T","MEAN_ELEMENT_THEORY":"SGP4","CLASSIFICATION_TYPE":"U","PERIOD":"95.592","MEAN_MOTION":"15.06404878","REV_AT_EPOCH":"12773","DECAY_DATE":null,"ELEMENT_SET_NO":"999","RCS_SIZE":"LARGE","OBJECT_NAME":"STARLINK-1457","COUNTRY_CODE":"US","BSTAR":"0.00019829000000","INCLINATION":"53.0568","FILE":"3578162","APOAPSIS":"548.003","NORAD_CAT_ID":"45674","EPHEMERIS_TYPE":"0","TLE_LINE1":"1 45674U 20035T   22262.64856363  .00002674  00000-0  19829-3 0  9992","EPOCH":"2022-09-19T15:33:55.897632","LAUNCH_DATE":"2020-06-04","GP_ID":"213029088","PERIAPSIS":"546.395","CENTER_NAME":"EARTH","MEAN_MOTION_DDOT":"0.0000000000000","OBJECT_TYPE":"PAYLOAD","RA_OF_ASC_NODE":"354.5875","ECCENTRICITY":"0.00011610","ARG_OF_PERICENTER":"80.9409","REF_FRAME":"TEME","TLE_LINE2":"2 45674  53.0568 354.5875 0001161  80.9409 279.1711 15.06404878127732","MEAN_ANOMALY":"279.1711","SEMIMAJOR_AXIS":"6925.334","TIME_SYSTEM":"UTC","SITE":"AFETR"},{"GP_ID":"213030338","LAUNCH_DATE":"2020-06-04","PERIAPSIS":"546.205","CENTER_NAME":"EARTH","EPOCH":"2022-09-19T15:18:01.022112","TLE_LINE1":"1 45675U 20035U   22262.63751183  .00002603  00000-0  19354-3 0  9991","EPHEMERIS_TYPE":"0","REF_FRAME":"TEME","MEAN_ANOMALY":"291.2988","TLE_LINE2":"2 45675  53.0575 354.6450 0001452  68.8156 291.2988 15.06400882127729","SEMIMAJOR_AXIS":"6925.346","TIME_SYSTEM":"UTC","SITE":"AFETR","OBJECT_TYPE":"PAYLOAD","RA_OF_ASC_NODE":"354.6450","ARG_OF_PERICENTER":"68.8156","ECCENTRICITY":"0.00014520","MEAN_MOTION_DDOT":"0.0000000000000","REV_AT_EPOCH":"12772","DECAY_DATE":null,"CLASSIFICATION_TYPE":"U","MEAN_ELEMENT_THEORY":"SGP4","PERIOD":"95.592","MEAN_MOTION":"15.06400882","OBJECT_ID":"2020-035U","MEAN_MOTION_DOT":"0.00002603","APOAPSIS":"548.216","NORAD_CAT_ID":"45675","INCLINATION":"53.0575","FILE":"3578162","COUNTRY_CODE":"US","BSTAR":"0.00019354000000","OBJECT_NAME":"STARLINK-1458","RCS_SIZE":"LARGE","ELEMENT_SET_NO":"999"},{"OBJECT_ID":"2020-035V","MEAN_MOTION_DOT":"0.00000240","DECAY_DATE":null,"REV_AT_EPOCH":"12772","PERIOD":"95.593","MEAN_MOTION":"15.06386670","MEAN_ELEMENT_THEORY":"SGP4","CLASSIFICATION_TYPE":"U","BSTAR":"0.00003501000000","COUNTRY_CODE":"US","RCS_SIZE":"LARGE","OBJECT_NAME":"STARLINK-1460","ELEMENT_SET_NO":"999","APOAPSIS":"548.150","NORAD_CAT_ID":"45676","INCLINATION":"53.0565","FILE":"3578162","TLE_LINE1":"1 45676U 20035V   22262.67438423  .00000240  00000-0  35010-4 0  9998","EPHEMERIS_TYPE":"0","CENTER_NAME":"EARTH","LAUNCH_DATE":"2020-06-04","GP_ID":"213030089","PERIAPSIS":"546.359","EPOCH":"2022-09-19T16:11:06.797472","MEAN_MOTION_DDOT":"0.0000000000000","TIME_SYSTEM":"UTC","SITE":"AFETR","REF_FRAME":"TEME","TLE_LINE2":"2 45676  53.0565 354.4819 0001293  82.0851 278.0285 15.06386670127720","SEMIMAJOR_AXIS":"6925.389","MEAN_ANOMALY":"278.0285","ARG_OF_PERICENTER":"82.0851","ECCENTRICITY":"0.00012930","OBJECT_TYPE":"PAYLOAD","RA_OF_ASC_NODE":"354.4819"},{"PERIAPSIS":"546.348","LAUNCH_DATE":"2020-06-04","GP_ID":"212999322","CENTER_NAME":"EARTH","EPOCH":"2022-09-19T13:15:56.832768","TLE_LINE1":"1 45677U 20035W   22262.55274112  .00000508  00000-0  52998-4 0  9990","EPHEMERIS_TYPE":"0","MEAN_ANOMALY":"279.7268","TLE_LINE2":"2 45677  53.0573 355.0117 0001287  80.3867 279.7268 15.06391584127740","SEMIMAJOR_AXIS":"6925.374","REF_FRAME":"TEME","SITE":"AFETR","TIME_SYSTEM":"UTC","OBJECT_TYPE":"PAYLOAD","RA_OF_ASC_NODE":"355.0117","ARG_OF_PERICENTER":"80.3867","ECCENTRICITY":"0.00012870","MEAN_MOTION_DDOT":"0.0000000000000","REV_AT_EPOCH":"12774","DECAY_DATE":null,"CLASSIFICATION_TYPE":"U","MEAN_ELEMENT_THEORY":"SGP4","MEAN_MOTION":"15.06391584","PERIOD":"95.593","OBJECT_ID":"2020-035W","MEAN_MOTION_DOT":"0.00000508","NORAD_CAT_ID":"45677","APOAPSIS":"548.131","FILE":"3577889","INCLINATION":"53.0573","COUNTRY_CODE":"US","BSTAR":"0.00005299800000","RCS_SIZE":"LARGE","OBJECT_NAME":"STARLINK-1392","ELEMENT_SET_NO":"999"}];
